start=new Date('2023-02-22T00:00:00.000Z').valueOf();
sats=[{"TLE_LINE1":"1 52609U 22052M   23052.86500019  .00011928  00000-0  76547-3 0  9997","MEAN_MOTION_DOT":"0.00011928","GP_ID":"226332315","TIME_SYSTEM":"UTC","DECAY_DATE":null,"APOAPSIS":"540.290","PERIAPSIS":"538.977","REF_FRAME":"TEME","PERIOD":"95.435","RCS_SIZE":"LARGE","TLE_LINE2":"2 52609  53.2140 230.2961 0000949  77.8137 282.2961 15.08876534 43012","ARG_OF_PERICENTER":"77.8137","MEAN_MOTION":"15.08876534","MEAN_ANOMALY":"282.2961","FILE":"3821329","SEMIMAJOR_AXIS":"6917.769","BSTAR":"0.00076547000000","OBJECT_NAME":"STARLINK-3997","CLASSIFICATION_TYPE":"U","OBJECT_ID":"2022-052M","ECCENTRICITY":"0.00009490","COUNTRY_CODE":"US","MEAN_ELEMENT_THEORY":"SGP4","EPHEMERIS_TYPE":"0","RA_OF_ASC_NODE":"230.2961","EPOCH":"2023-02-21T20:45:36.016416","INCLINATION":"53.2140","OBJECT_TYPE":"PAYLOAD","NORAD_CAT_ID":"52609","REV_AT_EPOCH":"4301","MEAN_MOTION_DDOT":"0.0000000000000","ELEMENT_SET_NO":"999","LAUNCH_DATE":"2022-05-14","CENTER_NAME":"EARTH","SITE":"AFETR"},{"OBJECT_ID":"2022-052N","ECCENTRICITY":"0.00012080","FILE":"3821329","MEAN_ANOMALY":"274.1687","BSTAR":"0.00012904000000","OBJECT_NAME":"STARLINK-3998","SEMIMAJOR_AXIS":"6917.858","CLASSIFICATION_TYPE":"U","PERIOD":"95.437","RCS_SIZE":"LARGE","TLE_LINE2":"2 52610  53.2141 235.6739 0001208  85.9443 274.1687 15.08847293 42920","MEAN_MOTION":"15.08847293","ARG_OF_PERICENTER":"85.9443","TLE_LINE1":"1 52610U 22052N   23052.78078111  .00001767  00000-0  12904-3 0  9990","GP_ID":"226332565","MEAN_MOTION_DOT":"0.00001767","TIME_SYSTEM":"UTC","PERIAPSIS":"538.887","APOAPSIS":"540.559","REF_FRAME":"TEME","DECAY_DATE":null,"LAUNCH_DATE":"2022-05-14","ELEMENT_SET_NO":"999","CENTER_NAME":"EARTH","SITE":"AFETR","OBJECT_TYPE":"PAYLOAD","NORAD_CAT_ID":"52610","REV_AT_EPOCH":"4292","MEAN_MOTION_DDOT":"0.0000000000000","RA_OF_ASC_NODE":"235.6739","EPOCH":"2023-02-21T18:44:19.487904","INCLINATION":"53.2141","COUNTRY_CODE":"US","MEAN_ELEMENT_THEORY":"SGP4","EPHEMERIS_TYPE":"0"},{"TLE_LINE1":"1 52611U 22052P   23052.90589945  .00000507  00000-0  49951-4 0  9991","GP_ID":"226333317","MEAN_MOTION_DOT":"0.00000507","TIME_SYSTEM":"UTC","REF_FRAME":"TEME","PERIAPSIS":"538.991","APOAPSIS":"540.457","DECAY_DATE":null,"PERIOD":"95.437","RCS_SIZE":"LARGE","TLE_LINE2":"2 52611  53.2144 235.1119 0001060  89.7390 270.3724 15.08847021 42941","MEAN_MOTION":"15.08847021","ARG_OF_PERICENTER":"89.7390","MEAN_ANOMALY":"270.3724","FILE":"3821329","BSTAR":"0.00004995100000","OBJECT_NAME":"STARLINK-3980","SEMIMAJOR_AXIS":"6917.859","CLASSIFICATION_TYPE":"U","OBJECT_ID":"2022-052P","ECCENTRICITY":"0.00010600","COUNTRY_CODE":"US","MEAN_ELEMENT_THEORY":"SGP4","EPHEMERIS_TYPE":"0","RA_OF_ASC_NODE":"235.1119","EPOCH":"2023-02-21T21:44:29.712480","INCLINATION":"53.2144","OBJECT_TYPE":"PAYLOAD","NORAD_CAT_ID":"52611","REV_AT_EPOCH":"4294","MEAN_MOTION_DDOT":"0.0000000000000","LAUNCH_DATE":"2022-05-14","ELEMENT_SET_NO":"999","CENTER_NAME":"EARTH","SITE":"AFETR"},{"MEAN_ELEMENT_THEORY":"SGP4","EPHEMERIS_TYPE":"0","COUNTRY_CODE":"US","INCLINATION":"53.2138","RA_OF_ASC_NODE":"230.2838","EPOCH":"2023-02-21T20:49:31.140192","REV_AT_EPOCH":"4301","MEAN_MOTION_DDOT":"0.0000000000000","OBJECT_TYPE":"PAYLOAD","NORAD_CAT_ID":"52612","CENTER_NAME":"EARTH","SITE":"AFETR","LAUNCH_DATE":"2022-05-14","ELEMENT_SET_NO":"999","TIME_SYSTEM":"UTC","APOAPSIS":"540.548","PERIAPSIS":"538.884","REF_FRAME":"TEME","DECAY_DATE":null,"TLE_LINE1":"1 52612U 22052Q   23052.86772153  .00004895  00000-0  32536-3 0  9996","GP_ID":"226333068","MEAN_MOTION_DOT":"0.00004895","TLE_LINE2":"2 52612  53.2138 230.2838 0001203 103.4349 256.6777 15.08849688 43011","MEAN_MOTION":"15.08849688","ARG_OF_PERICENTER":"103.4349","PERIOD":"95.437","RCS_SIZE":"LARGE","CLASSIFICATION_TYPE":"U","MEAN_ANOMALY":"256.6777","FILE":"3821329","BSTAR":"0.00032536000000","OBJECT_NAME":"STARLINK-4002","SEMIMAJOR_AXIS":"6917.851","OBJECT_ID":"2022-052Q","ECCENTRICITY":"0.00012030"},{"MEAN_MOTION_DDOT":"0.0000000000000","REV_AT_EPOCH":"4313","NORAD_CAT_ID":"52613","OBJECT_TYPE":"PAYLOAD","SITE":"AFETR","CENTER_NAME":"EARTH","ELEMENT_SET_NO":"999","LAUNCH_DATE":"2022-05-14","EPHEMERIS_TYPE":"0","MEAN_ELEMENT_THEORY":"SGP4","COUNTRY_CODE":"US","INCLINATION":"53.2165","EPOCH":"2023-02-21T18:48:57.720960","RA_OF_ASC_NODE":"220.6575","CLASSIFICATION_TYPE":"U","SEMIMAJOR_AXIS":"6917.857","OBJECT_NAME":"STARLINK-3921","BSTAR":"0.00013676000000","MEAN_ANOMALY":"253.8463","FILE":"3821329","ECCENTRICITY":"0.00012110","OBJECT_ID":"2022-052R","DECAY_DATE":null,"REF_FRAME":"TEME","PERIAPSIS":"538.885","APOAPSIS":"540.560","TIME_SYSTEM":"UTC","MEAN_MOTION_DOT":"0.00001890","GP_ID":"226331816","TLE_LINE1":"1 52613U 22052R   23052.78400140  .00001890  00000-0  13676-3 0  9998","ARG_OF_PERICENTER":"106.2663","MEAN_MOTION":"15.08847493","TLE_LINE2":"2 52613  53.2165 220.6575 0001211 106.2663 253.8463 15.08847493 43138","RCS_SIZE":"LARGE","PERIOD":"95.437"},{"MEAN_ELEMENT_THEORY":"SGP4","EPHEMERIS_TYPE":"0","COUNTRY_CODE":"US","INCLINATION":"53.2139","RA_OF_ASC_NODE":"220.6416","EPOCH":"2023-02-21T18:54:15.782688","REV_AT_EPOCH":"4313","MEAN_MOTION_DDOT":"0.0000000000000","OBJECT_TYPE":"PAYLOAD","NORAD_CAT_ID":"52614","CENTER_NAME":"EARTH","SITE":"AFETR","LAUNCH_DATE":"2022-05-14","ELEMENT_SET_NO":"999","TIME_SYSTEM":"UTC","PERIAPSIS":"539.050","REF_FRAME":"TEME","APOAPSIS":"540.439","DECAY_DATE":null,"TLE_LINE1":"1 52614U 22052S   23052.78768267  .00000683  00000-0  61002-4 0  9992","GP_ID":"226332066","MEAN_MOTION_DOT":"0.00000683","TLE_LINE2":"2 52614  53.2139 220.6416 0001004  95.5298 264.5809 15.08840306 43137","MEAN_MOTION":"15.08840306","ARG_OF_PERICENTER":"95.5298","PERIOD":"95.438","RCS_SIZE":"LARGE","CLASSIFICATION_TYPE":"U","FILE":"3821329","MEAN_ANOMALY":"264.5809","BSTAR":"0.00006100200000","OBJECT_NAME":"STARLINK-3982","SEMIMAJOR_AXIS":"6917.879","OBJECT_ID":"2022-052S","ECCENTRICITY":"0.00010040"},{"DECAY_DATE":null,"REF_FRAME":"TEME","PERIAPSIS":"539.051","APOAPSIS":"540.395","TIME_SYSTEM":"UTC","MEAN_MOTION_DOT":"0.00003878","GP_ID":"226332818","TLE_LINE1":"1 52615U 22052T   23052.76974155  .00003878  00000-0  26154-3 0  9993","ARG_OF_PERICENTER":"75.5357","MEAN_MOTION":"15.08847324","TLE_LINE2":"2 52615  53.2143 235.7232 0000972  75.5357 284.5743 15.08847324 42914","RCS_SIZE":"LARGE","PERIOD":"95.437","CLASSIFICATION_TYPE":"U","SEMIMAJOR_AXIS":"6917.858","BSTAR":"0.00026154000000","OBJECT_NAME":"STARLINK-4011","FILE":"3821329","MEAN_ANOMALY":"284.5743","ECCENTRICITY":"0.00009720","OBJECT_ID":"2022-052T","EPHEMERIS_TYPE":"0","MEAN_ELEMENT_THEORY":"SGP4","COUNTRY_CODE":"US","INCLINATION":"53.2143","EPOCH":"2023-02-21T18:28:25.669920","RA_OF_ASC_NODE":"235.7232","MEAN_MOTION_DDOT":"0.0000000000000","REV_AT_EPOCH":"4291","NORAD_CAT_ID":"52615","OBJECT_TYPE":"PAYLOAD","SITE":"AFETR","CENTER_NAME":"EARTH","ELEMENT_SET_NO":"999","LAUNCH_DATE":"2022-05-14"},{"CLASSIFICATION_TYPE":"U","MEAN_ANOMALY":"282.4846","FILE":"3821329","SEMIMAJOR_AXIS":"6917.860","BSTAR":"0.00007137300000","OBJECT_NAME":"STARLINK-4015","OBJECT_ID":"2022-052U","ECCENTRICITY":"0.00011600","TIME_SYSTEM":"UTC","DECAY_DATE":null,"PERIAPSIS":"538.923","REF_FRAME":"TEME","APOAPSIS":"540.528","TLE_LINE1":"1 52616U 22052U   23052.84655747  .00000848  00000-0  71373-4 0  9994","MEAN_MOTION_DOT":"0.00000848","GP_ID":"226333568","TLE_LINE2":"2 52616  53.2150 220.3784 0001160  77.6275 282.4846 15.08846515 43145","ARG_OF_PERICENTER":"77.6275","MEAN_MOTION":"15.08846515","PERIOD":"95.437","RCS_SIZE":"LARGE","REV_AT_EPOCH":"4314","MEAN_MOTION_DDOT":"0.0000000000000","OBJECT_TYPE":"PAYLOAD","NORAD_CAT_ID":"52616","CENTER_NAME":"EARTH","SITE":"AFETR","ELEMENT_SET_NO":"999","LAUNCH_DATE":"2022-05-14","MEAN_ELEMENT_THEORY":"SGP4","EPHEMERIS_TYPE":"0","COUNTRY_CODE":"US","INCLINATION":"53.2150","RA_OF_ASC_NODE":"220.3784","EPOCH":"2023-02-21T20:19:02.565408"},{"OBJECT_ID":"2022-052V","ECCENTRICITY":"0.00011440","CLASSIFICATION_TYPE":"U","FILE":"3821329","MEAN_ANOMALY":"268.6241","SEMIMAJOR_AXIS":"6917.851","BSTAR":"0.00013071000000","OBJECT_NAME":"STARLINK-3996","TLE_LINE2":"2 52617  53.2163 220.4085 0001144  91.4882 268.6241 15.08849495 43139","ARG_OF_PERICENTER":"91.4882","MEAN_MOTION":"15.08849495","PERIOD":"95.437","RCS_SIZE":"LARGE","TIME_SYSTEM":"UTC","DECAY_DATE":null,"REF_FRAME":"TEME","PERIAPSIS":"538.925","APOAPSIS":"540.508","TLE_LINE1":"1 52617U 22052V   23052.83919753  .00001794  00000-0  13071-3 0  9995","MEAN_MOTION_DOT":"0.00001794","GP_ID":"226332316","CENTER_NAME":"EARTH","SITE":"AFETR","ELEMENT_SET_NO":"999","LAUNCH_DATE":"2022-05-14","REV_AT_EPOCH":"4313","MEAN_MOTION_DDOT":"0.0000000000000","OBJECT_TYPE":"PAYLOAD","NORAD_CAT_ID":"52617","INCLINATION":"53.2163","RA_OF_ASC_NODE":"220.4085","EPOCH":"2023-02-21T20:08:26.666592","MEAN_ELEMENT_THEORY":"SGP4","EPHEMERIS_TYPE":"0","COUNTRY_CODE":"US"},{"RA_OF_ASC_NODE":"220.3958","EPOCH":"2023-02-21T20:13:44.803488","INCLINATION":"53.2143","COUNTRY_CODE":"US","MEAN_ELEMENT_THEORY":"SGP4","EPHEMERIS_TYPE":"0","ELEMENT_SET_NO":"999","LAUNCH_DATE":"2022-05-14","CENTER_NAME":"EARTH","SITE":"AFETR","OBJECT_TYPE":"PAYLOAD","NORAD_CAT_ID":"52618","REV_AT_EPOCH":"4313","MEAN_MOTION_DDOT":"0.0000000000000","PERIOD":"95.437","RCS_SIZE":"LARGE","TLE_LINE2":"2 52618  53.2143 220.3958 0001072  92.4283 267.6832 15.08846632 43137","ARG_OF_PERICENTER":"92.4283","MEAN_MOTION":"15.08846632","TLE_LINE1":"1 52618U 22052W   23052.84287967  .00001777  00000-0  12967-3 0  9996","MEAN_MOTION_DOT":"0.00001777","GP_ID":"226332566","TIME_SYSTEM":"UTC","DECAY_DATE":null,"PERIAPSIS":"538.984","REF_FRAME":"TEME","APOAPSIS":"540.467","OBJECT_ID":"2022-052W","ECCENTRICITY":"0.00010720","FILE":"3821329","MEAN_ANOMALY":"267.6832","SEMIMAJOR_AXIS":"6917.860","BSTAR":"0.00012967000000","OBJECT_NAME":"STARLINK-3983","CLASSIFICATION_TYPE":"U"}];
